{
  "type": "FeatureCollection",
  "features": [
    {
      "type": "Feature",
      "properties": {
        "norad_id": 27954,
        "name": "GALAXY 13 (HORIZONS-1)",
        "group": "intelsat",
        "lat": -0.8563603313867689,
        "lon": 18.072394646103014,
        "alt_km": 35791.314753005754,
        "timestamp": "2025-12-12T05:47:28.439503+00:00",
        "meta_object_name": "GALAXY 13 (HORIZONS-1)",
        "meta_object_id": "2003-044A",
        "meta_epoch": "2025-12-11T17:56:04.648128",
        "meta_mean_motion": 1.00271098,
        "meta_eccentricity": 0.00020423,
        "meta_inclination": 0.933,
        "meta_ra_of_asc_node": 86.4823,
        "meta_arg_of_pericenter": 166.2979,
        "meta_mean_anomaly": 306.9395,
        "meta_ephemeris_type": 0,
        "meta_classification_type": "U",
        "meta_norad_cat_id": 27954,
        "meta_element_set_no": 999,
        "meta_rev_at_epoch": 4469,
        "meta_bstar": 0,
        "meta_mean_motion_dot": 1.41e-06,
        "meta_mean_motion_ddot": 0,
        "tle_line1": "1 27954U 03044A   25345.74727602  .00000141  00000+0  00000+0 0  9996",
        "tle_line2": "2 27954   0.9330  86.4823 0002042 166.2979 306.9395  1.00271098 44699"
      },
      "geometry": {
        "type": "Point",
        "coordinates": [
          18.072394646103014,
          -0.8563603313867689
        ]
      }
    },
    {
      "type": "Feature",
      "properties": {
        "norad_id": 28358,
        "name": "INTELSAT 10-02",
        "group": "intelsat",
        "lat": 0.015419166255417024,
        "lon": 167.07973197497944,
        "alt_km": 35789.58584677485,
        "timestamp": "2025-12-12T05:47:28.439516+00:00",
        "meta_object_name": "INTELSAT 10-02",
        "meta_object_id": "2004-022A",
        "meta_epoch": "2025-12-11T22:04:03.397728",
        "meta_mean_motion": 1.00271494,
        "meta_eccentricity": 0.00012098,
        "meta_inclination": 0.0228,
        "meta_ra_of_asc_node": 63.4531,
        "meta_arg_of_pericenter": 236.1974,
        "meta_mean_anomaly": 111.2735,
        "meta_ephemeris_type": 0,
        "meta_classification_type": "U",
        "meta_norad_cat_id": 28358,
        "meta_element_set_no": 999,
        "meta_rev_at_epoch": 7867,
        "meta_bstar": 0,
        "meta_mean_motion_dot": -2e-08,
        "meta_mean_motion_ddot": 0,
        "tle_line1": "1 28358U 04022A   25345.91948377 -.00000002  00000+0  00000+0 0  9992",
        "tle_line2": "2 28358   0.0228  63.4531 0001209 236.1974 111.2735  1.00271494 78672"
      },
      "geometry": {
        "type": "Point",
        "coordinates": [
          167.07973197497944,
          0.015419166255417024
        ]
      }
    },
    {
      "type": "Feature",
      "properties": {
        "norad_id": 28626,
        "name": "XM-3 (RHYTHM)",
        "group": "intelsat",
        "lat": -0.08336046051929259,
        "lon": -75.27023183453657,
        "alt_km": 36157.401281340106,
        "timestamp": "2025-12-12T05:47:28.439527+00:00",
        "meta_object_name": "XM-3 (RHYTHM)",
        "meta_object_id": "2005-008A",
        "meta_epoch": "2025-12-11T22:38:00.148128",
        "meta_mean_motion": 0.98952782,
        "meta_eccentricity": 0.00015113,
        "meta_inclination": 0.1728,
        "meta_ra_of_asc_node": 81.4536,
        "meta_arg_of_pericenter": 269.1876,
        "meta_mean_anomaly": 187.8641,
        "meta_ephemeris_type": 0,
        "meta_classification_type": "U",
        "meta_norad_cat_id": 28626,
        "meta_element_set_no": 999,
        "meta_rev_at_epoch": 4074,
        "meta_bstar": 0,
        "meta_mean_motion_dot": -1.75e-06,
        "meta_mean_motion_ddot": 0,
        "tle_line1": "1 28626U 05008A   25345.94305727 -.00000175  00000+0  00000+0 0  9995",
        "tle_line2": "2 28626   0.1728  81.4536 0001511 269.1876 187.8641  0.98952782 40748"
      },
      "geometry": {
        "type": "Point",
        "coordinates": [
          -75.27023183453657,
          -0.08336046051929259
        ]
      }
    },
    {
      "type": "Feature",
      "properties": {
        "norad_id": 28659,
        "name": "DIRECTV 8",
        "group": "intelsat",
        "lat": 0.010570723192392382,
        "lon": 49.03122747414888,
        "alt_km": 35796.5366305946,
        "timestamp": "2025-12-12T05:47:28.439540+00:00",
        "meta_object_name": "DIRECTV 8",
        "meta_object_id": "2005-019A",
        "meta_epoch": "2025-12-11T23:13:06.320928",
        "meta_mean_motion": 1.00271659,
        "meta_eccentricity": 0.00030481,
        "meta_inclination": 0.0169,
        "meta_ra_of_asc_node": 56.041,
        "meta_arg_of_pericenter": 209.0774,
        "meta_mean_anomaly": 45.0355,
        "meta_ephemeris_type": 0,
        "meta_classification_type": "U",
        "meta_norad_cat_id": 28659,
        "meta_element_set_no": 999,
        "meta_rev_at_epoch": 7519,
        "meta_bstar": 0,
        "meta_mean_motion_dot": 1e-07,
        "meta_mean_motion_ddot": 0,
        "tle_line1": "1 28659U 05019A   25345.96743427  .00000010  00000+0  00000+0 0  9995",
        "tle_line2": "2 28659   0.0169  56.0410 0003048 209.0774  45.0355  1.00271659 75193"
      },
      "geometry": {
        "type": "Point",
        "coordinates": [
          49.03122747414888,
          0.010570723192392382
        ]
      }
    },
    {
      "type": "Feature",
      "properties": {
        "norad_id": 28702,
        "name": "GALAXY 28 (G-28)",
        "group": "intelsat",
        "lat": -0.07540912305874055,
        "lon": 79.37441549610254,
        "alt_km": 35797.544413756514,
        "timestamp": "2025-12-12T05:47:28.439551+00:00",
        "meta_object_name": "GALAXY 28 (G-28)",
        "meta_object_id": "2005-022A",
        "meta_epoch": "2025-12-11T23:21:42.996384",
        "meta_mean_motion": 1.00272457,
        "meta_eccentricity": 0.00027557,
        "meta_inclination": 2.8166,
        "meta_ra_of_asc_node": 81.2885,
        "meta_arg_of_pericenter": 182.9357,
        "meta_mean_anomaly": 78.4447,
        "meta_ephemeris_type": 0,
        "meta_classification_type": "U",
        "meta_norad_cat_id": 28702,
        "meta_element_set_no": 999,
        "meta_rev_at_epoch": 5009,
        "meta_bstar": 0,
        "meta_mean_motion_dot": -1.79e-06,
        "meta_mean_motion_ddot": 0,
        "tle_line1": "1 28702U 05022A   25345.97341431 -.00000179  00000+0  00000+0 0  9995",
        "tle_line2": "2 28702   2.8166  81.2885 0002755 182.9357  78.4447  1.00272457 50096"
      },
      "geometry": {
        "type": "Point",
        "coordinates": [
          79.37441549610254,
          -0.07540912305874055
        ]
      }
    },
    {
      "type": "Feature",
      "properties": {
        "norad_id": 29236,
        "name": "GALAXY 16 (G-16)",
        "group": "intelsat",
        "lat": -0.018751895531950592,
        "lon": 69.05282058910242,
        "alt_km": 35797.104762309355,
        "timestamp": "2025-12-12T05:47:28.439563+00:00",
        "meta_object_name": "GALAXY 16 (G-16)",
        "meta_object_id": "2006-023A",
        "meta_epoch": "2025-12-11T23:18:50.770944",
        "meta_mean_motion": 1.00272293,
        "meta_eccentricity": 0.00026671,
        "meta_inclination": 0.0465,
        "meta_ra_of_asc_node": 136.7183,
        "meta_arg_of_pericenter": 121.2412,
        "meta_mean_anomaly": 73.6704,
        "meta_ephemeris_type": 0,
        "meta_classification_type": "U",
        "meta_norad_cat_id": 29236,
        "meta_element_set_no": 999,
        "meta_rev_at_epoch": 7109,
        "meta_bstar": 0,
        "meta_mean_motion_dot": -1.18e-06,
        "meta_mean_motion_ddot": 0,
        "tle_line1": "1 29236U 06023A   25345.97142096 -.00000118  00000+0  00000+0 0  9999",
        "tle_line2": "2 29236   0.0465 136.7183 0002667 121.2412  73.6704  1.00272293 71092"
      },
      "geometry": {
        "type": "Point",
        "coordinates": [
          69.05282058910242,
          -0.018751895531950592
        ]
      }
    },
    {
      "type": "Feature",
      "properties": {
        "norad_id": 29494,
        "name": "DIRECTV 9S",
        "group": "intelsat",
        "lat": -0.5274076518517675,
        "lon": 66.86183894496422,
        "alt_km": 35798.472098386475,
        "timestamp": "2025-12-12T05:47:28.439575+00:00",
        "meta_object_name": "DIRECTV 9S",
        "meta_object_id": "2006-043A",
        "meta_epoch": "2025-12-11T23:18:13.331232",
        "meta_mean_motion": 1.0027181,
        "meta_eccentricity": 0.00030435,
        "meta_inclination": 1.9385,
        "meta_ra_of_asc_node": 83.2185,
        "meta_arg_of_pericenter": 180.636,
        "meta_mean_anomaly": 65.4128,
        "meta_ephemeris_type": 0,
        "meta_classification_type": "U",
        "meta_norad_cat_id": 29494,
        "meta_element_set_no": 999,
        "meta_rev_at_epoch": 4950,
        "meta_bstar": 0,
        "meta_mean_motion_dot": -1.05e-06,
        "meta_mean_motion_ddot": 0,
        "tle_line1": "1 29494U 06043A   25345.97098763 -.00000105  00000+0  00000+0 0  9994",
        "tle_line2": "2 29494   1.9385  83.2185 0003043 180.6360  65.4128  1.00271810 49501"
      },
      "geometry": {
        "type": "Point",
        "coordinates": [
          66.86183894496422,
          -0.5274076518517675
        ]
      }
    }
  ]
}